[{"OBJECT_NAME":"SHUNTIAN ","OBJECT_ID":"2019-093H","EPOCH":"2026-03-09T22:37:28.644960","MEAN_MOTION":14.94616116,"ECCENTRICITY":0.00128401,"INCLINATION":97.8015,"RA_OF_ASC_NODE":157.6565,"ARG_OF_PERICENTER":41.7431,"MEAN_ANOMALY":318.4767,"EPHEMERIS_TYPE":0,"CLASSIFICATION_TYPE":"U","NORAD_CAT_ID":44886,"ELEMENT_SET_NO":999,"REV_AT_EPOCH":33735,"BSTAR":0.00022413276,"MEAN_MOTION_DOT":2.372e-5,"MEAN_MOTION_DDOT":0},{"OBJECT_NAME":"STARLINK-32505","OBJECT_ID":"2025-037J","EPOCH":"2026-03-09T22:00:01.999584","MEAN_MOTION":14.98348642,"ECCENTRICITY":0.00031381,"INCLINATION":70.003,"RA_OF_ASC_NODE":354.0433,"ARG_OF_PERICENTER":266.347,"MEAN_ANOMALY":34.7136,"EPHEMERIS_TYPE":0,"CLASSIFICATION_TYPE":"U","NORAD_CAT_ID":63085,"ELEMENT_SET_NO":999,"REV_AT_EPOCH":576,"BSTAR":-0.0027350248,"MEAN_MOTION_DOT":-0.00032592,"MEAN_MOTION_DDOT":0}]
